NORAD_CAT_ID,OBJECT_NAME,OBJECT_TYPE,EPOCH,MEAN_MOTION,ECCENTRICITY,INCLINATION,RA_OF_ASC_NODE,ARG_OF_PERICENTER,MEAN_ANOMALY,BSTAR,MEAN_MOTION_DOT,MEAN_MOTION_DDOT,TLE_LINE0,TLE_LINE1,TLE_LINE2,SEMIMAJOR_AXIS,PERIOD,APOGEE,PERIGEE,DECAYED
49727.0,STARLINK-3242,PAYLOAD,2024-08-13 06:08:36,15.0884392,0.0001444,53.2161,213.3646,90.4164,269.6993,3.869e-05,3.28e-06,0.0,0 STARLINK-3242,1 49727U 21115D   24226.25597691  .00000328  00000-0  38690-4 0  9992,2 49727  53.2161 213.3646 0001444  90.4164 269.6993 15.08843920148828,6917.868,95.437,540.732,538.734,0.0
49727.0,STARLINK-3242,PAYLOAD,2024-08-13 15:40:55,15.08836361,0.0001387,53.2156,211.5812,86.9796,273.1355,-4.8951e-05,-1.067e-05,0.0,0 STARLINK-3242,1 49727U 21115D   24226.65342473 -.00001067  00000-0 -48951-4 0  9996,2 49727  53.2156 211.5812 0001387  86.9796 273.1355 15.08836361150000,6917.892,95.438,540.716,538.797,0.0
49727.0,STARLINK-3242,PAYLOAD,2024-08-14 05:59:24,15.08831913,0.0001331,53.216,208.9045,96.9572,263.1572,-0.00013415,-2.422e-05,0.0,0 STARLINK-3242,1 49727U 21115D   24227.24959448 -.00002422  00000-0 -13415-3 0  9990,2 49727  53.2160 208.9045 0001331  96.9572 263.1572 15.08831913150092,6917.905,95.438,540.691,538.849,0.0
49727.0,STARLINK-3242,PAYLOAD,2024-08-14 09:10:11,15.08831477,0.0001289,53.2158,208.3095,95.2901,264.8238,-0.00012604,-2.293e-05,0.0,0 STARLINK-3242,1 49727U 21115D   24227.38207400 -.00002293  00000-0 -12604-3 0  9994,2 49727  53.2158 208.3095 0001289  95.2901 264.8238 15.08831477148996,6917.906,95.438,540.663,538.88,0.0
49727.0,STARLINK-3242,PAYLOAD,2024-08-14 15:31:43,15.08836359,0.0001321,53.2162,207.1207,98.5219,261.5923,-0.00011274,-2.082e-05,0.0,0 STARLINK-3242,1 49727U 21115D   24227.64703122 -.00002082  00000-0 -11274-3 0  9993,2 49727  53.2162 207.1207 0001321  98.5219 261.5923 15.08836359150158,6917.892,95.438,540.67,538.843,0.0
49727.0,STARLINK-3242,PAYLOAD,2024-08-15 05:50:11,15.08838575,0.000125,53.2153,204.444,93.8304,266.2831,6.1575e-05,6.92e-06,0.0,0 STARLINK-3242,1 49727U 21115D   24228.24318974  .00000692  00000-0  61575-4 0  9990,2 49727  53.2153 204.4440 0001250  93.8304 266.2831 15.08838575149128,6917.885,95.438,540.614,538.885,0.0
49727.0,STARLINK-3242,PAYLOAD,2024-08-15 15:22:30,15.08837326,0.0001197,53.2154,202.6597,89.0343,271.0786,0.00013947,1.932e-05,0.0,0 STARLINK-3242,1 49727U 21115D   24228.64062963  .00001932  00000-0  13947-3 0  9995,2 49727  53.2154 202.6597 0001197  89.0343 271.0786 15.08837326149184,6917.889,95.438,540.582,538.925,0.0
49727.0,STARLINK-3242,PAYLOAD,2024-08-16 04:05:35,15.08835555,0.0001252,53.2157,200.2808,95.1808,264.9327,0.00021708,3.168e-05,0.0,0 STARLINK-3242,1 49727U 21115D   24229.17055328  .00003168  00000-0  21708-3 0  9998,2 49727  53.2157 200.2808 0001252  95.1808 264.9327 15.08835555150380,6917.894,95.438,540.625,538.893,0.0
49727.0,STARLINK-3242,PAYLOAD,2024-08-16 05:40:58,15.08837792,0.0001258,53.2159,199.9834,94.7613,265.3523,0.00024033,3.539e-05,0.0,0 STARLINK-3242,1 49727U 21115D   24229.23679237  .00003539  00000-0  24033-3 0  9992,2 49727  53.2159 199.9834 0001258  94.7613 265.3523 15.08837792149274,6917.887,95.438,540.622,538.882,0.0
49727.0,STARLINK-3242,PAYLOAD,2024-08-16 21:34:50,15.08843085,0.0001376,53.2162,197.0101,93.3041,266.8109,0.0001815,2.602e-05,0.0,0 STARLINK-3242,1 49727U 21115D   24229.89919198  .00002602  00000-0  18150-3 0  9990,2 49727  53.2162 197.0101 0001376  93.3041 266.8109 15.08843085149374,6917.871,95.437,540.688,538.784,0.0
49727.0,STARLINK-3242,PAYLOAD,2024-08-17 03:56:23,15.08818897,0.0001107,53.216,195.8203,100.8449,259.2667,0.0005494,8.462e-05,0.0,0 STARLINK-3242,1 49727U 21115D   24230.16415618  .00008462  00000-0  54940-3 0  9997,2 49727  53.2160 195.8203 0001107 100.8449 259.2667 15.08818897150537,6917.945,95.439,540.576,539.044,0.0
49727.0,STARLINK-3242,PAYLOAD,2024-08-17 05:31:46,15.08788815,0.0001455,53.2163,195.5231,107.7295,252.3856,0.0010751,0.0001684,0.0,0 STARLINK-3242,1 49727U 21115D   24230.23040470  .00016840  00000-0  10751-2 0  9995,2 49727  53.2163 195.5231 0001455 107.7295 252.3856 15.08788815150540,6918.037,95.441,540.908,538.895,0.0
49727.0,STARLINK-3242,PAYLOAD,2024-08-17 21:25:37,15.08841789,0.0001383,53.2167,192.55,92.8055,267.3096,5.7441e-05,6.26e-06,0.0,0 STARLINK-3242,1 49727U 21115D   24230.89279330  .00000626  00000-0  57441-4 0  9990,2 49727  53.2167 192.5500 0001383  92.8055 267.3096 15.08841789149526,6917.875,95.437,540.697,538.783,0.0
49727.0,STARLINK-3242,PAYLOAD,2024-08-18 03:47:10,15.08841063,0.0001504,53.2167,191.361,74.2162,285.8996,6.6242e-07,-2.77e-06,0.0,0 STARLINK-3242,1 49727U 21115D   24231.15775532 -.00000277  00000-0  66242-6 0  9999,2 49727  53.2167 191.3610 0001504  74.2162 285.8996 15.08841063150681,6917.877,95.437,540.783,538.702,0.0
49727.0,STARLINK-3242,PAYLOAD,2024-08-18 06:57:55,15.08845005,0.000142,53.2167,190.7643,88.3807,271.7348,4.5952e-05,4.44e-06,0.0,0 STARLINK-3242,1 49727U 21115D   24231.29023039  .00000444  00000-0  45952-4 0  9990,2 49727  53.2167 190.7643 0001420  88.3807 271.7348 15.08845005150707,6917.865,95.437,540.712,538.748,0.0
49727.0,STARLINK-3242,PAYLOAD,2024-08-19 03:37:56,15.08846053,0.0001433,53.2163,186.8978,91.3244,268.7913,3.5354e-05,2.75e-06,0.0,0 STARLINK-3242,1 49727U 21115D   24232.15134857  .00000275  00000-0  35354-4 0  9994,2 49727  53.2163 186.8978 0001433  91.3244 268.7913 15.08846053149710,6917.862,95.437,540.718,538.736,0.0
49727.0,STARLINK-3242,PAYLOAD,2024-08-20 03:28:42,15.08856888,9.98e-05,53.2151,182.4358,81.0295,279.081,0.00020827,3.03e-05,0.0,0 STARLINK-3242,1 49727U 21115D   24233.14493813  .00003030  00000-0  20827-3 0  9994,2 49727  53.2151 182.4358 0000998  81.0295 279.0810 15.08856888150987,6917.829,95.436,540.384,539.003,0.0
49727.0,STARLINK-3242,PAYLOAD,2024-08-20 06:39:27,15.08878394,0.0001312,53.2168,181.8423,89.6536,270.4607,0.00037936,5.761e-05,0.0,0 STARLINK-3242,1 49727U 21115D   24233.27739670  .00005761  00000-0  37936-3 0  9994,2 49727  53.2168 181.8423 0001312  89.6536 270.4607 15.08878394151003,6917.763,95.435,540.536,538.72,0.0
49727.0,STARLINK-3242,PAYLOAD,2024-08-21 03:19:31,15.0883516,0.0001492,53.2165,177.9794,99.2747,260.8414,-1.0346e-05,-4.53e-06,0.0,0 STARLINK-3242,1 49727U 21115D   24234.13855422 -.00000453  00000-0 -10346-4 0  9996,2 49727  53.2165 177.9794 0001492  99.2747 260.8414 15.08835160151134,6917.895,95.438,540.792,538.728,0.0
49727.0,STARLINK-3242,PAYLOAD,2024-08-21 20:48:46,15.08830225,0.00015,53.2169,174.7086,108.4592,251.6563,-8.0565e-05,-1.57e-05,0.0,0 STARLINK-3242,1 49727U 21115D   24234.86720370 -.00001570  00000-0 -80565-4 0  9990,2 49727  53.2169 174.7086 0001500 108.4592 251.6563 15.08830225151240,6917.91,95.438,540.813,538.738,0.0
